{
  "type": "FeatureCollection",
  "features": [
    {
      "type": "Feature",
      "properties": {
        "norad_id": 30136,
        "name": "FENGYUN 1C DEB",
        "group": "fengyun-1c-debris",
        "lat": -56.059448499411594,
        "lon": -116.61147244932155,
        "alt_km": 1001.2911920298666,
        "timestamp": "2025-12-02T21:34:01.545306+00:00",
        "meta_object_name": "FENGYUN 1C DEB",
        "meta_object_id": "1999-025SR",
        "meta_epoch": "2025-12-02T05:15:04.555008",
        "meta_mean_motion": 13.95304029,
        "meta_eccentricity": 0.0129263,
        "meta_inclination": 98.5563,
        "meta_ra_of_asc_node": 229.831,
        "meta_arg_of_pericenter": 98.5456,
        "meta_mean_anomaly": 32.2114,
        "meta_ephemeris_type": 0,
        "meta_classification_type": "U",
        "meta_norad_cat_id": 30136,
        "meta_element_set_no": 999,
        "meta_rev_at_epoch": 95944,
        "meta_bstar": 0.00046682,
        "meta_mean_motion_dot": 6.39e-06,
        "meta_mean_motion_ddot": 0,
        "tle_line1": "1 30136U 99025SR  25336.21880272  .00000639  00000+0  46682-3 0  9993",
        "tle_line2": "2 30136  98.5563 229.8310 0129263  98.5456  32.2114 13.95304029959446"
      },
      "geometry": {
        "type": "Point",
        "coordinates": [
          -116.61147244932155,
          -56.059448499411594
        ]
      }
    },
    {
      "type": "Feature",
      "properties": {
        "norad_id": 30138,
        "name": "FENGYUN 1C DEB",
        "group": "fengyun-1c-debris",
        "lat": -58.461689171179,
        "lon": -164.29046497983796,
        "alt_km": 828.5327663368707,
        "timestamp": "2025-12-02T21:34:01.545316+00:00",
        "meta_object_name": "FENGYUN 1C DEB",
        "meta_object_id": "1999-025ST",
        "meta_epoch": "2025-12-02T10:22:12.469728",
        "meta_mean_motion": 14.19969362,
        "meta_eccentricity": 0.0020279,
        "meta_inclination": 98.7608,
        "meta_ra_of_asc_node": 29.8001,
        "meta_arg_of_pericenter": 166.5969,
        "meta_mean_anomaly": 209.1355,
        "meta_ephemeris_type": 0,
        "meta_classification_type": "U",
        "meta_norad_cat_id": 30138,
        "meta_element_set_no": 999,
        "meta_rev_at_epoch": 97255,
        "meta_bstar": 0.001142,
        "meta_mean_motion_dot": 2.389e-05,
        "meta_mean_motion_ddot": 0,
        "tle_line1": "1 30138U 99025ST  25336.43208877  .00002389  00000+0  11420-2 0  9999",
        "tle_line2": "2 30138  98.7608  29.8001 0020279 166.5969 209.1355 14.19969362972550"
      },
      "geometry": {
        "type": "Point",
        "coordinates": [
          -164.29046497983796,
          -58.461689171179
        ]
      }
    },
    {
      "type": "Feature",
      "properties": {
        "norad_id": 30139,
        "name": "FENGYUN 1C DEB",
        "group": "fengyun-1c-debris",
        "lat": -61.66276330899657,
        "lon": -162.90163134398912,
        "alt_km": 799.112825161631,
        "timestamp": "2025-12-02T21:34:01.545328+00:00",
        "meta_object_name": "FENGYUN 1C DEB",
        "meta_object_id": "1999-025SU",
        "meta_epoch": "2025-11-30T13:42:33.077088",
        "meta_mean_motion": 14.03581873,
        "meta_eccentricity": 0.0131774,
        "meta_inclination": 98.3658,
        "meta_ra_of_asc_node": 179.1214,
        "meta_arg_of_pericenter": 324.9204,
        "meta_mean_anomaly": 99.2292,
        "meta_ephemeris_type": 0,
        "meta_classification_type": "U",
        "meta_norad_cat_id": 30139,
        "meta_element_set_no": 999,
        "meta_rev_at_epoch": 96079,
        "meta_bstar": 0.0011579,
        "meta_mean_motion_dot": 1.922e-05,
        "meta_mean_motion_ddot": 0,
        "tle_line1": "1 30139U 99025SU  25334.57121617  .00001922  00000+0  11579-2 0  9996",
        "tle_line2": "2 30139  98.3658 179.1214 0131774 324.9204  99.2292 14.03581873960793"
      },
      "geometry": {
        "type": "Point",
        "coordinates": [
          -162.90163134398912,
          -61.66276330899657
        ]
      }
    },
    {
      "type": "Feature",
      "properties": {
        "norad_id": 30140,
        "name": "FENGYUN 1C DEB",
        "group": "fengyun-1c-debris",
        "lat": 29.026075786259383,
        "lon": 34.83642724860274,
        "alt_km": 803.0442895029055,
        "timestamp": "2025-12-02T21:34:01.545339+00:00",
        "meta_object_name": "FENGYUN 1C DEB",
        "meta_object_id": "1999-025SV",
        "meta_epoch": "2025-11-30T16:03:41.750208",
        "meta_mean_motion": 14.20644307,
        "meta_eccentricity": 0.0040473,
        "meta_inclination": 98.8279,
        "meta_ra_of_asc_node": 37.5577,
        "meta_arg_of_pericenter": 345.5101,
        "meta_mean_anomaly": 168.1518,
        "meta_ephemeris_type": 0,
        "meta_classification_type": "U",
        "meta_norad_cat_id": 30140,
        "meta_element_set_no": 999,
        "meta_rev_at_epoch": 96972,
        "meta_bstar": 0.001321,
        "meta_mean_motion_dot": 2.824e-05,
        "meta_mean_motion_ddot": 0,
        "tle_line1": "1 30140U 99025SV  25334.66923322  .00002824  00000+0  13210-2 0  9997",
        "tle_line2": "2 30140  98.8279  37.5577 0040473 345.5101 168.1518 14.20644307969728"
      },
      "geometry": {
        "type": "Point",
        "coordinates": [
          34.83642724860274,
          29.026075786259383
        ]
      }
    },
    {
      "type": "Feature",
      "properties": {
        "norad_id": 30141,
        "name": "FENGYUN 1C DEB",
        "group": "fengyun-1c-debris",
        "lat": 75.72930945385973,
        "lon": -140.64966526199512,
        "alt_km": 701.6232059517306,
        "timestamp": "2025-12-02T21:34:01.545349+00:00",
        "meta_object_name": "FENGYUN 1C DEB",
        "meta_object_id": "1999-025SW",
        "meta_epoch": "2025-12-01T23:41:39.441120",
        "meta_mean_motion": 14.51189003,
        "meta_eccentricity": 0.00189649,
        "meta_inclination": 99.0134,
        "meta_ra_of_asc_node": 256.9867,
        "meta_arg_of_pericenter": 64.3926,
        "meta_mean_anomaly": 295.9223,
        "meta_ephemeris_type": 0,
        "meta_classification_type": "U",
        "meta_norad_cat_id": 30141,
        "meta_element_set_no": 999,
        "meta_rev_at_epoch": 98088,
        "meta_bstar": 0.0030359208,
        "meta_mean_motion_dot": 0.00012053,
        "meta_mean_motion_ddot": 0,
        "tle_line1": "1 30141U 99025SW  25335.98726205  .00012053  00000+0  30359-2 0  9993",
        "tle_line2": "2 30141  99.0134 256.9867 0018964  64.3926 295.9223 14.51189003980885"
      },
      "geometry": {
        "type": "Point",
        "coordinates": [
          -140.64966526199512,
          75.72930945385973
        ]
      }
    },
    {
      "type": "Feature",
      "properties": {
        "norad_id": 30142,
        "name": "FENGYUN 1C DEB",
        "group": "fengyun-1c-debris",
        "lat": -59.914472415830836,
        "lon": 68.63963232980437,
        "alt_km": 806.7467721970743,
        "timestamp": "2025-12-02T21:34:01.545359+00:00",
        "meta_object_name": "FENGYUN 1C DEB",
        "meta_object_id": "1999-025SX",
        "meta_epoch": "2025-12-02T11:38:09.140928",
        "meta_mean_motion": 14.10387831,
        "meta_eccentricity": 0.010091,
        "meta_inclination": 99.1303,
        "meta_ra_of_asc_node": 52.1033,
        "meta_arg_of_pericenter": 337.2921,
        "meta_mean_anomaly": 22.3801,
        "meta_ephemeris_type": 0,
        "meta_classification_type": "U",
        "meta_norad_cat_id": 30142,
        "meta_element_set_no": 999,
        "meta_rev_at_epoch": 96154,
        "meta_bstar": 0.0019102,
        "meta_mean_motion_dot": 3.513e-05,
        "meta_mean_motion_ddot": 0,
        "tle_line1": "1 30142U 99025SX  25336.48482802  .00003513  00000+0  19102-2 0  9996",
        "tle_line2": "2 30142  99.1303  52.1033 0100910 337.2921  22.3801 14.10387831961546"
      },
      "geometry": {
        "type": "Point",
        "coordinates": [
          68.63963232980437,
          -59.914472415830836
        ]
      }
    },
    {
      "type": "Feature",
      "properties": {
        "norad_id": 30143,
        "name": "FENGYUN 1C DEB",
        "group": "fengyun-1c-debris",
        "lat": 30.236224392279215,
        "lon": -14.274294095711436,
        "alt_km": 957.5872012002874,
        "timestamp": "2025-12-02T21:34:01.545369+00:00",
        "meta_object_name": "FENGYUN 1C DEB",
        "meta_object_id": "1999-025SY",
        "meta_epoch": "2025-12-02T10:51:14.087232",
        "meta_mean_motion": 14.02519346,
        "meta_eccentricity": 0.0104028,
        "meta_inclination": 98.7341,
        "meta_ra_of_asc_node": 160.157,
        "meta_arg_of_pericenter": 319.5328,
        "meta_mean_anomaly": 97.402,
        "meta_ephemeris_type": 0,
        "meta_classification_type": "U",
        "meta_norad_cat_id": 30143,
        "meta_element_set_no": 999,
        "meta_rev_at_epoch": 96075,
        "meta_bstar": 0.0016176,
        "meta_mean_motion_dot": 2.569e-05,
        "meta_mean_motion_ddot": 0,
        "tle_line1": "1 30143U 99025SY  25336.45224638  .00002569  00000+0  16176-2 0  9993",
        "tle_line2": "2 30143  98.7341 160.1570 0104028 319.5328  97.4020 14.02519346960755"
      },
      "geometry": {
        "type": "Point",
        "coordinates": [
          -14.274294095711436,
          30.236224392279215
        ]
      }
    }
  ]
}